{
  "norad_id": 51956,
  "name": "STARLINK-3700",
  "history": [
    {
      "epoch": "2026-03-28T20:02:16.275840Z",
      "apogee_km": 477.214633679655,
      "perigee_km": 475.4338446497204,
      "latitude_deg": 1.4039951773601839e-05,
      "longitude_deg": 157.8020331200817,
      "height_km": 477.3896550622196,
      "semi_major_axis_km": 6854.461239164688,
      "eccentricity": 0.0001299,
      "inclination_deg": 53.1616,
      "raan_deg": 284.6195,
      "arg_perigee_deg": 100.8317,
      "mean_anomaly_deg": 259.283,
      "mean_motion_rev_day": 15.29828596
    },
    {
      "epoch": "2026-03-29T22:41:28.863744Z",
      "apogee_km": 476.89188902105616,
      "perigee_km": 475.1947939685033,
      "latitude_deg": 6.276887160771448e-06,
      "longitude_deg": 111.74845794130124,
      "height_km": 477.01825426853446,
      "semi_major_axis_km": 6854.18034149478,
      "eccentricity": 0.0001238,
      "inclination_deg": 53.1615,
      "raan_deg": 279.463,
      "arg_perigee_deg": 95.1885,
      "mean_anomaly_deg": 264.9257,
      "mean_motion_rev_day": 15.2992264
    },
    {
      "epoch": "2026-03-29T22:41:28.864608Z",
      "apogee_km": 476.8918204792535,
      "perigee_km": 475.19486251030685,
      "latitude_deg": 7.192420991700967e-06,
      "longitude_deg": 111.74845501352097,
      "height_km": 477.0182480707402,
      "semi_major_axis_km": 6854.18034149478,
      "eccentricity": 0.00012379,
      "inclination_deg": 53.1615,
      "raan_deg": 279.463,
      "arg_perigee_deg": 95.1885,
      "mean_anomaly_deg": 264.9257,
      "mean_motion_rev_day": 15.2992264
    },
    {
      "epoch": "2026-03-30T22:12:18.610560Z",
      "apogee_km": 476.02260834863864,
      "perigee_km": 474.39329411993094,
      "latitude_deg": -3.165211130334601e-05,
      "longitude_deg": 113.52447416703744,
      "height_km": 476.0333537167311,
      "semi_major_axis_km": 6853.344951234284,
      "eccentricity": 0.00011887,
      "inclination_deg": 53.1618,
      "raan_deg": 274.912,
      "arg_perigee_deg": 84.8596,
      "mean_anomaly_deg": 275.254,
      "mean_motion_rev_day": 15.30202384
    },
    {
      "epoch": "2026-03-31T20:00:01.999008Z",
      "apogee_km": 476.1402367549599,
      "perigee_km": 474.4625150405409,
      "latitude_deg": -27.125872082323774,
      "longitude_deg": 119.0440147607742,
      "height_km": 483.7627564471199,
      "semi_major_axis_km": 6853.43837589775,
      "eccentricity": 0.0001224,
      "inclination_deg": 53.1596,
      "raan_deg": 270.6958,
      "arg_perigee_deg": 84.8472,
      "mean_anomaly_deg": 240.7072,
      "mean_motion_rev_day": 15.30171095
    },
    {
      "epoch": "2026-04-01T11:49:35.689152Z",
      "apogee_km": 476.2129221410023,
      "perigee_km": 474.40087157467315,
      "latitude_deg": 9.110734082100275e-06,
      "longitude_deg": -99.6211106040151,
      "height_km": 476.26623939594185,
      "semi_major_axis_km": 6853.443896857838,
      "eccentricity": 0.0001322,
      "inclination_deg": 53.1615,
      "raan_deg": 267.6326,
      "arg_perigee_deg": 93.8724,
      "mean_anomaly_deg": 266.2428,
      "mean_motion_rev_day": 15.30169246
    },
    {
      "epoch": "2026-04-02T20:44:42.400896Z",
      "apogee_km": 476.1753450462993,
      "perigee_km": 474.267370079554,
      "latitude_deg": -4.698127318804815e-05,
      "longitude_deg": 118.87866720283846,
      "height_km": 475.94769008582716,
      "semi_major_axis_km": 6853.358357562926,
      "eccentricity": 0.0001392,
      "inclination_deg": 53.16,
      "raan_deg": 261.2623,
      "arg_perigee_deg": 79.6365,
      "mean_anomaly_deg": 280.4792,
      "mean_motion_rev_day": 15.30197894
    },
    {
      "epoch": "2026-04-02T20:44:42.401760Z",
      "apogee_km": 476.1750709119651,
      "perigee_km": 474.26764421388816,
      "latitude_deg": -4.335143493798809e-05,
      "longitude_deg": 118.87866629736105,
      "height_km": 475.947739399454,
      "semi_major_axis_km": 6853.358357562926,
      "eccentricity": 0.00013916,
      "inclination_deg": 53.16,
      "raan_deg": 261.2623,
      "arg_perigee_deg": 79.6365,
      "mean_anomaly_deg": 280.4792,
      "mean_motion_rev_day": 15.30197894
    },
    {
      "epoch": "2026-04-03T17:07:23.863296Z",
      "apogee_km": 476.21948648219586,
      "perigee_km": 474.2394118477023,
      "latitude_deg": 1.4430373786860214e-05,
      "longitude_deg": 168.4213507196908,
      "height_km": 476.32904753102247,
      "semi_major_axis_km": 6853.366449164949,
      "eccentricity": 0.00014446,
      "inclination_deg": 53.159,
      "raan_deg": 257.3146,
      "arg_perigee_deg": 101.7633,
      "mean_anomaly_deg": 258.353,
      "mean_motion_rev_day": 15.30195184
    },
    {
      "epoch": "2026-04-05T14:34:57.424512Z",
      "apogee_km": 476.0242031762273,
      "perigee_km": 474.48876889961593,
      "latitude_deg": 8.014574972451032e-06,
      "longitude_deg": -164.13354255941059,
      "height_km": 476.3502247686967,
      "semi_major_axis_km": 6853.393486037921,
      "eccentricity": 0.00011202,
      "inclination_deg": 53.1599,
      "raan_deg": 248.5165,
      "arg_perigee_deg": 104.7476,
      "mean_anomaly_deg": 255.3649,
      "mean_motion_rev_day": 15.30186129
    }
  ]
}